{
  "type": "FeatureCollection",
  "features": [
    {
      "type": "Feature",
      "properties": {
        "norad_id": 66870,
        "name": "STARLINK-36114",
        "group": "last-30-days",
        "lat": -28.881368430106033,
        "lon": 34.45496440503648,
        "alt_km": 355.7474040249881,
        "timestamp": "2025-12-21T03:56:49.616843+00:00",
        "meta_object_name": "STARLINK-36114",
        "meta_object_id": "2025-281Y",
        "meta_epoch": "2025-12-20T20:00:01.999008",
        "meta_mean_motion": 15.73127989,
        "meta_eccentricity": 0.0001097,
        "meta_inclination": 43.0006,
        "meta_ra_of_asc_node": 72.7514,
        "meta_arg_of_pericenter": 274.8398,
        "meta_mean_anomaly": 323.5167,
        "meta_ephemeris_type": 0,
        "meta_classification_type": "U",
        "meta_norad_cat_id": 66870,
        "meta_element_set_no": 999,
        "meta_rev_at_epoch": 259,
        "meta_bstar": -0.015478,
        "meta_mean_motion_dot": -0.01900983,
        "meta_mean_motion_ddot": 0,
        "tle_line1": "1 66870U 25281Y   25354.83335647 -.01900983  00000+0 -15478-1 0  9990",
        "tle_line2": "2 66870  43.0006  72.7514 0001097 274.8398 323.5167 15.73127989  2591"
      },
      "geometry": {
        "type": "Point",
        "coordinates": [
          34.45496440503648,
          -28.881368430106033
        ]
      }
    },
    {
      "type": "Feature",
      "properties": {
        "norad_id": 66871,
        "name": "STARLINK-36095",
        "group": "last-30-days",
        "lat": -27.81529577870186,
        "lon": 36.261775831960215,
        "alt_km": 355.6979902593712,
        "timestamp": "2025-12-21T03:56:49.616852+00:00",
        "meta_object_name": "STARLINK-36095",
        "meta_object_id": "2025-281Z",
        "meta_epoch": "2025-12-20T20:00:01.999008",
        "meta_mean_motion": 15.73134532,
        "meta_eccentricity": 0.0001171,
        "meta_inclination": 43.0007,
        "meta_ra_of_asc_node": 72.7461,
        "meta_arg_of_pericenter": 271.3423,
        "meta_mean_anomaly": 328.9287,
        "meta_ephemeris_type": 0,
        "meta_classification_type": "U",
        "meta_norad_cat_id": 66871,
        "meta_element_set_no": 999,
        "meta_rev_at_epoch": 272,
        "meta_bstar": -0.015546,
        "meta_mean_motion_dot": -0.0194795,
        "meta_mean_motion_ddot": 0,
        "tle_line1": "1 66871U 25281Z   25354.83335647 -.01947950  00000+0 -15546-1 0  9992",
        "tle_line2": "2 66871  43.0007  72.7461 0001171 271.3423 328.9287 15.73134532  2727"
      },
      "geometry": {
        "type": "Point",
        "coordinates": [
          36.261775831960215,
          -27.81529577870186
        ]
      }
    },
    {
      "type": "Feature",
      "properties": {
        "norad_id": 66872,
        "name": "STARLINK-36082",
        "group": "last-30-days",
        "lat": -26.727042831013353,
        "lon": 38.03115208730826,
        "alt_km": 355.6258574714693,
        "timestamp": "2025-12-21T03:56:49.616861+00:00",
        "meta_object_name": "STARLINK-36082",
        "meta_object_id": "2025-281AA",
        "meta_epoch": "2025-12-20T20:00:01.999008",
        "meta_mean_motion": 15.73127638,
        "meta_eccentricity": 0.0001172,
        "meta_inclination": 43.0004,
        "meta_ra_of_asc_node": 72.7411,
        "meta_arg_of_pericenter": 273.4058,
        "meta_mean_anomaly": 328.7894,
        "meta_ephemeris_type": 0,
        "meta_classification_type": "U",
        "meta_norad_cat_id": 66872,
        "meta_element_set_no": 999,
        "meta_rev_at_epoch": 259,
        "meta_bstar": -0.01551,
        "meta_mean_motion_dot": -0.0194349,
        "meta_mean_motion_ddot": 0,
        "tle_line1": "1 66872U 25281AA  25354.83335647 -.01943490  00000+0 -15510-1 0  9999",
        "tle_line2": "2 66872  43.0004  72.7411 0001172 273.4058 328.7894 15.73127638  2594"
      },
      "geometry": {
        "type": "Point",
        "coordinates": [
          38.03115208730826,
          -26.727042831013353
        ]
      }
    },
    {
      "type": "Feature",
      "properties": {
        "norad_id": 66873,
        "name": "STARLINK-36128",
        "group": "last-30-days",
        "lat": -23.339610353182003,
        "lon": 43.140853758697645,
        "alt_km": 355.38262770471283,
        "timestamp": "2025-12-21T03:56:49.616870+00:00",
        "meta_object_name": "STARLINK-36128",
        "meta_object_id": "2025-281AB",
        "meta_epoch": "2025-12-20T20:00:01.999008",
        "meta_mean_motion": 15.73126274,
        "meta_eccentricity": 0.0001222,
        "meta_inclination": 43.0008,
        "meta_ra_of_asc_node": 72.7256,
        "meta_arg_of_pericenter": 275.7494,
        "meta_mean_anomaly": 332.1975,
        "meta_ephemeris_type": 0,
        "meta_classification_type": "U",
        "meta_norad_cat_id": 66873,
        "meta_element_set_no": 999,
        "meta_rev_at_epoch": 272,
        "meta_bstar": -0.015491,
        "meta_mean_motion_dot": -0.01902344,
        "meta_mean_motion_ddot": 0,
        "tle_line1": "1 66873U 25281AB  25354.83335647 -.01902344  00000+0 -15491-1 0  9991",
        "tle_line2": "2 66873  43.0008  72.7256 0001222 275.7494 332.1975 15.73126274  2720"
      },
      "geometry": {
        "type": "Point",
        "coordinates": [
          43.140853758697645,
          -23.339610353182003
        ]
      }
    },
    {
      "type": "Feature",
      "properties": {
        "norad_id": 66874,
        "name": "STARLINK-36129",
        "group": "last-30-days",
        "lat": -25.617867620179684,
        "lon": 39.766485446614986,
        "alt_km": 355.52922315453907,
        "timestamp": "2025-12-21T03:56:49.616879+00:00",
        "meta_object_name": "STARLINK-36129",
        "meta_object_id": "2025-281AC",
        "meta_epoch": "2025-12-20T20:00:01.999008",
        "meta_mean_motion": 15.73131251,
        "meta_eccentricity": 0.0001195,
        "meta_inclination": 43.0006,
        "meta_ra_of_asc_node": 72.7365,
        "meta_arg_of_pericenter": 275.4551,
        "meta_mean_anomaly": 328.6554,
        "meta_ephemeris_type": 0,
        "meta_classification_type": "U",
        "meta_norad_cat_id": 66874,
        "meta_element_set_no": 999,
        "meta_rev_at_epoch": 272,
        "meta_bstar": -0.015554,
        "meta_mean_motion_dot": -0.01948675,
        "meta_mean_motion_ddot": 0,
        "tle_line1": "1 66874U 25281AC  25354.83335647 -.01948675  00000+0 -15554-1 0  9999",
        "tle_line2": "2 66874  43.0006  72.7365 0001195 275.4551 328.6554 15.73131251  2724"
      },
      "geometry": {
        "type": "Point",
        "coordinates": [
          39.766485446614986,
          -25.617867620179684
        ]
      }
    },
    {
      "type": "Feature",
      "properties": {
        "norad_id": 66875,
        "name": "STARLINK-36053",
        "group": "last-30-days",
        "lat": -22.173191133399726,
        "lon": 44.78447215286056,
        "alt_km": 355.41661713590383,
        "timestamp": "2025-12-21T03:56:49.616907+00:00",
        "meta_object_name": "STARLINK-36053",
        "meta_object_id": "2025-281AD",
        "meta_epoch": "2025-12-20T20:00:01.999008",
        "meta_mean_motion": 15.73131506,
        "meta_eccentricity": 0.0001181,
        "meta_inclination": 43.0006,
        "meta_ra_of_asc_node": 72.7208,
        "meta_arg_of_pericenter": 269.6209,
        "meta_mean_anomaly": 340.2375,
        "meta_ephemeris_type": 0,
        "meta_classification_type": "U",
        "meta_norad_cat_id": 66875,
        "meta_element_set_no": 999,
        "meta_rev_at_epoch": 272,
        "meta_bstar": -0.015516,
        "meta_mean_motion_dot": -0.0194447,
        "meta_mean_motion_ddot": 0,
        "tle_line1": "1 66875U 25281AD  25354.83335647 -.01944470  00000+0 -15516-1 0  9997",
        "tle_line2": "2 66875  43.0006  72.7208 0001181 269.6209 340.2375 15.73131506  2725"
      },
      "geometry": {
        "type": "Point",
        "coordinates": [
          44.78447215286056,
          -22.173191133399726
        ]
      }
    },
    {
      "type": "Feature",
      "properties": {
        "norad_id": 66876,
        "name": "STARLINK-35702",
        "group": "last-30-days",
        "lat": -24.487990526323067,
        "lon": 41.46921147668163,
        "alt_km": 355.4686975833947,
        "timestamp": "2025-12-21T03:56:49.616916+00:00",
        "meta_object_name": "STARLINK-35702",
        "meta_object_id": "2025-281AE",
        "meta_epoch": "2025-12-20T20:00:01.999008",
        "meta_mean_motion": 15.73133063,
        "meta_eccentricity": 0.0001198,
        "meta_inclination": 43.0007,
        "meta_ra_of_asc_node": 72.731,
        "meta_arg_of_pericenter": 275.0812,
        "meta_mean_anomaly": 330.9452,
        "meta_ephemeris_type": 0,
        "meta_classification_type": "U",
        "meta_norad_cat_id": 66876,
        "meta_element_set_no": 999,
        "meta_rev_at_epoch": 272,
        "meta_bstar": -0.015567,
        "meta_mean_motion_dot": -0.01950284,
        "meta_mean_motion_ddot": 0,
        "tle_line1": "1 66876U 25281AE  25354.83335647 -.01950284  00000+0 -15567-1 0  9994",
        "tle_line2": "2 66876  43.0007  72.7310 0001198 275.0812 330.9452 15.73133063  2722"
      },
      "geometry": {
        "type": "Point",
        "coordinates": [
          41.46921147668163,
          -24.487990526323067
        ]
      }
    }
  ]
}